{
  "type": "FeatureCollection",
  "features": [
    {
      "type": "Feature",
      "properties": {
        "norad_id": 66446,
        "name": "STARLINK-34986",
        "group": "last-30-days",
        "lat": 20.37575635870285,
        "lon": 99.25792757859831,
        "alt_km": 411.21092633274384,
        "timestamp": "2025-12-07T20:38:12.866132+00:00",
        "meta_object_name": "STARLINK-34986",
        "meta_object_id": "2025-259AA",
        "meta_epoch": "2025-12-06T15:08:17.236320",
        "meta_mean_motion": 15.50717396,
        "meta_eccentricity": 0.00036136,
        "meta_inclination": 43.0015,
        "meta_ra_of_asc_node": 82.9643,
        "meta_arg_of_pericenter": 270.4402,
        "meta_mean_anomaly": 89.6044,
        "meta_ephemeris_type": 0,
        "meta_classification_type": "U",
        "meta_norad_cat_id": 66446,
        "meta_element_set_no": 999,
        "meta_rev_at_epoch": 522,
        "meta_bstar": 0.0025811199,
        "meta_mean_motion_dot": 0.00154895,
        "meta_mean_motion_ddot": 0,
        "tle_line1": "1 66446U 25259AA  25340.63075505  .00154895  00000+0  25811-2 0  9994",
        "tle_line2": "2 66446  43.0015  82.9643 0003613 270.4402  89.6044 15.50717396  5229"
      },
      "geometry": {
        "type": "Point",
        "coordinates": [
          99.25792757859831,
          20.37575635870285
        ]
      }
    },
    {
      "type": "Feature",
      "properties": {
        "norad_id": 66447,
        "name": "STARLINK-34851",
        "group": "last-30-days",
        "lat": 22.495012420484183,
        "lon": 102.14584368234202,
        "alt_km": 411.4472791489361,
        "timestamp": "2025-12-07T20:38:12.866144+00:00",
        "meta_object_name": "STARLINK-34851",
        "meta_object_id": "2025-259AB",
        "meta_epoch": "2025-12-06T16:40:03.313920",
        "meta_mean_motion": 15.50690671,
        "meta_eccentricity": 0.00040491,
        "meta_inclination": 43.0023,
        "meta_ra_of_asc_node": 82.5838,
        "meta_arg_of_pericenter": 272.8522,
        "meta_mean_anomaly": 87.1875,
        "meta_ephemeris_type": 0,
        "meta_classification_type": "U",
        "meta_norad_cat_id": 66447,
        "meta_element_set_no": 999,
        "meta_rev_at_epoch": 512,
        "meta_bstar": 0.0019447268,
        "meta_mean_motion_dot": 0.00115934,
        "meta_mean_motion_ddot": 0,
        "tle_line1": "1 66447U 25259AB  25340.69448280  .00115934  00000+0  19447-2 0  9994",
        "tle_line2": "2 66447  43.0023  82.5838 0004049 272.8522  87.1875 15.50690671  5124"
      },
      "geometry": {
        "type": "Point",
        "coordinates": [
          102.14584368234202,
          22.495012420484183
        ]
      }
    },
    {
      "type": "Feature",
      "properties": {
        "norad_id": 66448,
        "name": "STARLINK-35355",
        "group": "last-30-days",
        "lat": 23.45457761663539,
        "lon": 103.50687463803364,
        "alt_km": 410.3531710972029,
        "timestamp": "2025-12-07T20:38:12.866155+00:00",
        "meta_object_name": "STARLINK-35355",
        "meta_object_id": "2025-259AC",
        "meta_epoch": "2025-12-06T16:39:34.538400",
        "meta_mean_motion": 15.50601371,
        "meta_eccentricity": 0.00010967,
        "meta_inclination": 43.0003,
        "meta_ra_of_asc_node": 82.58,
        "meta_arg_of_pericenter": 298.3309,
        "meta_mean_anomaly": 61.744,
        "meta_ephemeris_type": 0,
        "meta_classification_type": "U",
        "meta_norad_cat_id": 66448,
        "meta_element_set_no": 999,
        "meta_rev_at_epoch": 523,
        "meta_bstar": 0.0022573217,
        "meta_mean_motion_dot": 0.0013449,
        "meta_mean_motion_ddot": 0,
        "tle_line1": "1 66448U 25259AC  25340.69414975  .00134490  00000+0  22573-2 0  9991",
        "tle_line2": "2 66448  43.0003  82.5800 0001096 298.3309  61.7440 15.50601371  5234"
      },
      "geometry": {
        "type": "Point",
        "coordinates": [
          103.50687463803364,
          23.45457761663539
        ]
      }
    },
    {
      "type": "Feature",
      "properties": {
        "norad_id": 66449,
        "name": "STARLINK-34720",
        "group": "last-30-days",
        "lat": 24.66376376977742,
        "lon": 105.27434909052151,
        "alt_km": 410.5073773859258,
        "timestamp": "2025-12-07T20:38:12.866172+00:00",
        "meta_object_name": "STARLINK-34720",
        "meta_object_id": "2025-259AD",
        "meta_epoch": "2025-12-06T16:39:04.732992",
        "meta_mean_motion": 15.50613009,
        "meta_eccentricity": 0.00015775,
        "meta_inclination": 43.0002,
        "meta_ra_of_asc_node": 82.5763,
        "meta_arg_of_pericenter": 274.1067,
        "meta_mean_anomaly": 85.9613,
        "meta_ephemeris_type": 0,
        "meta_classification_type": "U",
        "meta_norad_cat_id": 66449,
        "meta_element_set_no": 999,
        "meta_rev_at_epoch": 512,
        "meta_bstar": 0.0024109474,
        "meta_mean_motion_dot": 0.00143901,
        "meta_mean_motion_ddot": 0,
        "tle_line1": "1 66449U 25259AD  25340.69380478  .00143901  00000+0  24109-2 0  9996",
        "tle_line2": "2 66449  43.0002  82.5763 0001577 274.1067  85.9613 15.50613009  5128"
      },
      "geometry": {
        "type": "Point",
        "coordinates": [
          105.27434909052151,
          24.66376376977742
        ]
      }
    },
    {
      "type": "Feature",
      "properties": {
        "norad_id": 66450,
        "name": "STARLINK-35334",
        "group": "last-30-days",
        "lat": 25.878348481778893,
        "lon": 107.11609300691042,
        "alt_km": 410.47042335475,
        "timestamp": "2025-12-07T20:38:12.866183+00:00",
        "meta_object_name": "STARLINK-35334",
        "meta_object_id": "2025-259AE",
        "meta_epoch": "2025-12-06T15:05:49.303968",
        "meta_mean_motion": 15.50640512,
        "meta_eccentricity": 0.00016631,
        "meta_inclination": 43.001,
        "meta_ra_of_asc_node": 82.9491,
        "meta_arg_of_pericenter": 265.9718,
        "meta_mean_anomaly": 94.0952,
        "meta_ephemeris_type": 0,
        "meta_classification_type": "U",
        "meta_norad_cat_id": 66450,
        "meta_element_set_no": 999,
        "meta_rev_at_epoch": 522,
        "meta_bstar": 0.0021499199,
        "meta_mean_motion_dot": 0.0012815,
        "meta_mean_motion_ddot": 0,
        "tle_line1": "1 66450U 25259AE  25340.62904287  .00128150  00000+0  21499-2 0  9999",
        "tle_line2": "2 66450  43.0010  82.9491 0001663 265.9718  94.0952 15.50640512  5225"
      },
      "geometry": {
        "type": "Point",
        "coordinates": [
          107.11609300691042,
          25.878348481778893
        ]
      }
    },
    {
      "type": "Feature",
      "properties": {
        "norad_id": 66454,
        "name": "VIASAT-3 F2",
        "group": "last-30-days",
        "lat": -4.321755457251346,
        "lon": -117.92434615228993,
        "alt_km": 20173.182220928236,
        "timestamp": "2025-12-07T20:38:12.866197+00:00",
        "meta_object_name": "VIASAT-3 F2",
        "meta_object_id": "2025-261A",
        "meta_epoch": "2025-12-04T21:51:56.064384",
        "meta_mean_motion": 2.28030055,
        "meta_eccentricity": 0.23396731,
        "meta_inclination": 5.5696,
        "meta_ra_of_asc_node": 293.0418,
        "meta_arg_of_pericenter": 184.3884,
        "meta_mean_anomaly": 199.1368,
        "meta_ephemeris_type": 0,
        "meta_classification_type": "U",
        "meta_norad_cat_id": 66454,
        "meta_element_set_no": 999,
        "meta_rev_at_epoch": 47,
        "meta_bstar": 0,
        "meta_mean_motion_dot": -6.1e-07,
        "meta_mean_motion_ddot": 0,
        "tle_line1": "1 66454U 25261A   25338.91106556 -.00000061  00000+0  00000+0 0  9991",
        "tle_line2": "2 66454   5.5696 293.0418 2339673 184.3884 199.1368  2.28030055   477"
      },
      "geometry": {
        "type": "Point",
        "coordinates": [
          -117.92434615228993,
          -4.321755457251346
        ]
      }
    },
    {
      "type": "Feature",
      "properties": {
        "norad_id": 66455,
        "name": "ATLAS 5 CENTAUR R/B",
        "group": "last-30-days",
        "lat": -5.021469562763492,
        "lon": -122.32461816731966,
        "alt_km": 19706.653453251023,
        "timestamp": "2025-12-07T20:38:12.866211+00:00",
        "meta_object_name": "ATLAS 5 CENTAUR R/B",
        "meta_object_id": "2025-261B",
        "meta_epoch": "2025-12-07T02:35:10.279104",
        "meta_mean_motion": 2.28259391,
        "meta_eccentricity": 0.23295535,
        "meta_inclination": 6.153,
        "meta_ra_of_asc_node": 292.1796,
        "meta_arg_of_pericenter": 185.3522,
        "meta_mean_anomaly": 196.7478,
        "meta_ephemeris_type": 0,
        "meta_classification_type": "U",
        "meta_norad_cat_id": 66455,
        "meta_element_set_no": 999,
        "meta_rev_at_epoch": 52,
        "meta_bstar": 0,
        "meta_mean_motion_dot": -7.4e-07,
        "meta_mean_motion_ddot": 0,
        "tle_line1": "1 66455U 25261B   25341.10775786 -.00000074  00000+0  00000+0 0  9998",
        "tle_line2": "2 66455   6.1530 292.1796 2329553 185.3522 196.7478  2.28259391   524"
      },
      "geometry": {
        "type": "Point",
        "coordinates": [
          -122.32461816731966,
          -5.021469562763492
        ]
      }
    }
  ]
}